[{"OBJECT_NAME":"STARLINK-30856","OBJECT_ID":"2024-002W","EPOCH":"2026-03-09T17:43:30.896256","MEAN_MOTION":15.30210221,"ECCENTRICITY":0.00010276,"INCLINATION":53.1591,"RA_OF_ASC_NODE":229.6448,"ARG_OF_PERICENTER":91.3394,"MEAN_ANOMALY":268.7724,"EPHEMERIS_TYPE":0,"CLASSIFICATION_TYPE":"U","NORAD_CAT_ID":58725,"ELEMENT_SET_NO":999,"REV_AT_EPOCH":12202,"BSTAR":0.00010781365,"MEAN_MOTION_DOT":2.836e-5,"MEAN_MOTION_DDOT":0},{"OBJECT_NAME":"OBJECT K","OBJECT_ID":"2024-092K","EPOCH":"2026-03-09T22:27:09.905184","MEAN_MOTION":15.32834875,"ECCENTRICITY":0.00087198,"INCLINATION":97.6413,"RA_OF_ASC_NODE":198.1023,"ARG_OF_PERICENTER":142.4952,"MEAN_ANOMALY":217.69,"EPHEMERIS_TYPE":0,"CLASSIFICATION_TYPE":"U","NORAD_CAT_ID":59809,"ELEMENT_SET_NO":999,"REV_AT_EPOCH":10001,"BSTAR":0.0007267688,"MEAN_MOTION_DOT":0.00023035,"MEAN_MOTION_DDOT":0}]
